ONEWEB-0395             
1 50475U 21132G   24350.66955794 -.00000170  00000+0 -51581-3 0  9997
2 50475  87.8896 130.3911 0001741 107.3011 252.8308 13.11422314143821
ONEWEB-0396             
1 50476U 21132H   24350.95969412 -.00000001  00000+0 -34424-4 0  9993
2 50476  87.9116  84.5325 0001873 101.3004 258.8338 13.18683422150653
ONEWEB-0397             
1 50477U 21132J   24350.74630490 -.00000014  00000+0 -67788-4 0  9995
2 50477  87.9115  84.5763 0001809  96.9660 263.1678 13.18683285149331
ONEWEB-0398             
1 50478U 21132K   24350.63734241 -.00000011  00000+0 -65917-4 0  9992
2 50478  87.8893 130.3699 0001488 117.3978 242.7301 13.11415584143715
ONEWEB-0399             
1 50479U 21132L   24350.62378390  .00000439  00000+0  12038-2 0  9997
2 50479  87.8894 130.3926 0001826  91.0639 269.0698 13.11415358143707
ONEWEB-0400             
1 50480U 21132M   24348.67708741 -.00000011  00000+0 -60034-4 0  9997
2 50480  87.9111  84.9855 0001650 111.8371 248.2937 13.18686663150334
ONEWEB-0401             
1 50481U 21132N   24350.23729586 -.00000017  00000+0 -75524-4 0  9999
2 50481  87.9109  84.6691 0001700  93.9963 266.1364 13.18686953150548
ONEWEB-0402             
1 50482U 21132P   24349.97487922  .00000148  00000+0  34267-3 0  9995
2 50482  87.9108  84.7190 0001688  81.1224 279.0099 13.18689845150537
